STARLINK-32381          
1 61066U 24164S   26068.35903403  .00000456  00000+0  27520-4 0  9999
2 61066  53.1606  92.8854 0001177  82.0387 278.0748 15.30191281 83426
SCS-01 D                
1 63985U 25100D   26068.75607686  .00032471  00000+0  10528-2 0  9990
2 63985  97.3730 145.4097 0006346 266.2302  93.8214 15.31902149 45621
